NORAD_CAT_ID,OBJECT_NAME,OBJECT_TYPE,EPOCH,MEAN_MOTION,ECCENTRICITY,INCLINATION,RA_OF_ASC_NODE,ARG_OF_PERICENTER,MEAN_ANOMALY,BSTAR,MEAN_MOTION_DOT,MEAN_MOTION_DDOT,TLE_LINE0,TLE_LINE1,TLE_LINE2,SEMIMAJOR_AXIS,PERIOD,APOGEE,PERIGEE,DECAYED
52856.0,STARLINK-4201,PAYLOAD,2022-09-08 06:00:00,15.08809889,0.0001558,53.2122,3.2586,55.7978,256.7219,0.003256,0.0005187,0.0,0 STARLINK-4201,1 52856U 22062AC  22251.25001157  .00051870  00000-0  32560-2 0  9990,2 52856  53.2122   3.2586 0001558  55.7978 256.7219 15.08809889 13414,6917.972,95.439,540.915,538.76,0.0
52856.0,STARLINK-4201,PAYLOAD,2022-09-08 14:00:01,15.08840061,0.0001719,53.2124,1.7638,50.4999,273.599,-0.00022666,-3.894e-05,0.0,0 STARLINK-4201,1 52856U 22062AC  22251.58334491 -.00003894  00000-0 -22666-3 0  9998,2 52856  53.2124   1.7638 0001719  50.4999 273.5990 15.08840061  1306,6917.88,95.438,540.934,538.556,0.0
52856.0,STARLINK-4201,PAYLOAD,2022-09-08 22:00:00,15.08866916,0.0001675,53.2124,0.2669,48.4243,287.27,-0.0012183,-0.00019639,0.0,0 STARLINK-4201,1 52856U 22062AC  22251.91667824 -.00019639  00000-0 -12183-2 0  9990,2 52856  53.2124   0.2669 0001675  48.4243 287.2700 15.08866916  1302,6917.7980000000025,95.436,540.822,538.504,0.0
52856.0,STARLINK-4201,PAYLOAD,2022-09-09 14:00:01,15.08858903,0.0001673,53.2127,357.2743,48.1838,310.7588,-0.0016192,-0.00025979,0.0,0 STARLINK-4201,1 52856U 22062AC  22252.58334491 -.00025979  00000-0 -16192-2 0  9993,2 52856  53.2127 357.2743 0001673  48.1838 310.7588 15.08858903  1301,6917.823,95.436,540.845,538.53,0.0
52856.0,STARLINK-4201,PAYLOAD,2022-09-09 22:00:00,15.08855637,0.0001661,53.2125,355.7772,47.4462,323.1015,-0.0025509,-0.00040674,0.0,0 STARLINK-4201,1 52856U 22062AC  22252.91667824 -.00040674  00000-0 -25509-2 0  9990,2 52856  53.2125 355.7772 0001661  47.4462 323.1015 15.08855637  1300,6917.833000000001,95.437,540.847,538.549,0.0
52856.0,STARLINK-4201,PAYLOAD,2022-09-10 06:00:02,15.08831022,0.0001546,53.2128,354.2797,54.5571,327.6607,0.0027863,0.00044324,0.0,0 STARLINK-4201,1 52856U 22062AC  22253.25002315  .00044324  00000-0  27863-2 0  9995,2 52856  53.2128 354.2797 0001546  54.5571 327.6607 15.08831022 13712,6917.908,95.438,540.842,538.703,0.0
52856.0,STARLINK-4201,PAYLOAD,2022-09-10 14:00:01,15.088483800000002,0.0001659,53.2126,352.7851,48.4775,345.271,-0.0027243,-0.00043395,0.0,0 STARLINK-4201,1 52856U 22062AC  22253.58334491 -.00043395  00000-0 -27243-2 0  9995,2 52856  53.2126 352.7851 0001659  48.4775 345.2710 15.08848380 13768,6917.855,95.437,540.867,538.572,0.0
52856.0,STARLINK-4201,PAYLOAD,2022-09-10 22:00:00,15.08859722,0.0001602,53.2123,351.2879,47.4392,357.8988,-0.004331,-0.00068597,0.0,0 STARLINK-4201,1 52856U 22062AC  22253.91667824 -.00068597  00000-0 -43310-2 0  9995,2 52856  53.2123 351.2879 0001602  47.4392 357.8988 15.08859722  1306,6917.82,95.436,540.793,538.577,0.0
52856.0,STARLINK-4201,PAYLOAD,2022-09-11 06:00:00,15.08806647,0.000153,53.2123,349.7905,56.6538,0.2756,0.00247,0.00039205,0.0,0 STARLINK-4201,1 52856U 22062AC  22254.25001157  .00039205  00000-0  24700-2 0  9998,2 52856  53.2123 349.7905 0001530  56.6538   0.2756 15.08806647 13866,6917.982,95.44,540.906,538.789,0.0
52856.0,STARLINK-4201,PAYLOAD,2022-09-11 14:00:01,15.08824752,0.0001708,53.2126,348.2959,50.206,18.2971,0.00052521,8.077e-05,0.0,0 STARLINK-4201,1 52856U 22062AC  22254.58334491  .00008077  00000-0  52521-3 0  9990,2 52856  53.2126 348.2959 0001708  50.2060  18.2971 15.08824752  1300,6917.927,95.439,540.974,538.61,0.0
52856.0,STARLINK-4201,PAYLOAD,2022-09-11 22:00:00,15.08850517,0.0001636,53.2129,346.7985,50.1569,29.9201,-0.0013142999999999,-0.0002115,0.0,0 STARLINK-4201,1 52856U 22062AC  22254.91667824 -.00021150  00000-0 -13143-2 0  9991,2 52856  53.2129 346.7985 0001636  50.1569  29.9201 15.08850517  1301,6917.848000000001,95.437,540.845,538.581,0.0
52856.0,STARLINK-4201,PAYLOAD,2022-09-12 12:00:00,15.08853656,0.0001623,53.2133,344.1804,48.9097,321.4793,-0.0021972,-0.0003509999999999,0.0,0 STARLINK-4201,1 52856U 22062AC  22255.50001157 -.00035100  00000-0 -21972-2 0  9997,2 52856  53.2133 344.1804 0001623  48.9097 321.4793 15.08853656 14054,6917.839,95.437,540.826,538.581,0.0
52856.0,STARLINK-4201,PAYLOAD,2022-09-12 14:00:01,15.08828348,0.0001648,53.2134,343.8066,47.6913,55.6054,0.00074474,0.00011581,0.0,0 STARLINK-4201,1 52856U 22062AC  22255.58334491  .00011581  00000-0  74474-3 0  9996,2 52856  53.2134 343.8066 0001648  47.6913  55.6054 15.08828348  1301,6917.916,95.438,540.9209999999998,538.641,0.0
52856.0,STARLINK-4201,PAYLOAD,2022-09-12 22:00:00,15.08859173,0.0001598,53.2131,342.3091,47.4293,67.45,-0.0016537,-0.00026524,0.0,0 STARLINK-4201,1 52856U 22062AC  22255.91667824 -.00026524  00000-0 -16537-2 0  9992,2 52856  53.2131 342.3091 0001598  47.4293  67.4500 15.08859173  1300,6917.821999999999,95.436,540.7919999999998,538.581,0.0
52856.0,STARLINK-4201,PAYLOAD,2022-09-13 06:00:00,15.08851492,0.0001587,53.2131,340.8117,54.3518,72.1503,-6.0087e-05,-1.245e-05,0.0,0 STARLINK-4201,1 52856U 22062AC  22256.25001157 -.00001245  00000-0 -60087-4 0  9995,2 52856  53.2131 340.8117 0001587  54.3518  72.1503 15.08851492 14178,6917.845,95.437,540.808,538.612,0.0
52856.0,STARLINK-4201,PAYLOAD,2022-09-13 14:00:01,15.08848533,0.0001781999999999,53.213,339.3171,47.2818,90.8301,-0.0018359,-0.00029395,0.0,0 STARLINK-4201,1 52856U 22062AC  22256.58334491 -.00029395  00000-0 -18359-2 0  9990,2 52856  53.2130 339.3171 0001782  47.2818  90.8301 15.08848533  1307,6917.854,95.437,540.952,538.487,0.0
52856.0,STARLINK-4201,PAYLOAD,2022-09-13 22:00:00,15.08843996,0.0001708,53.2145,337.8172,46.1193,103.586,-0.004093,-0.0006485,0.0,0 STARLINK-4201,1 52856U 22062AC  22256.91667824 -.00064850  00000-0 -40930-2 0  9991,2 52856  53.2145 337.8172 0001708  46.1193 103.5860 15.08843996 14279,6917.868,95.437,540.915,538.552,0.0
52856.0,STARLINK-4201,PAYLOAD,2022-09-14 06:00:00,15.08791597,0.0001628,53.216,336.3179,50.4391,110.8407,0.0040672,0.00064952,0.0,0 STARLINK-4201,1 52856U 22062AC  22257.25001157  .00064952  00000-0  40672-2 0  9994,2 52856  53.2160 336.3179 0001628  50.4391 110.8407 15.08791597 14329,6918.028,95.441,541.02,538.7669999999998,0.0
52856.0,STARLINK-4201,PAYLOAD,2022-09-14 14:00:01,15.08810312,0.0001884,53.213,334.8275,47.7091,125.1286,0.0022684999999999,0.00035971,0.0,0 STARLINK-4201,1 52856U 22062AC  22257.58334491  .00035971  00000-0  22685-2 0  9993,2 52856  53.2130 334.8275 0001884  47.7091 125.1286 15.08810312 14372,6917.971,95.439,541.139,538.533,0.0
52856.0,STARLINK-4201,PAYLOAD,2022-09-14 22:00:00,15.08846415,0.0001788,53.2144,333.3279,48.4348,135.9769,-0.00085102,-0.00013809,0.0,0 STARLINK-4201,1 52856U 22062AC  22257.91667824 -.00013809  00000-0 -85102-3 0  9991,2 52856  53.2144 333.3279 0001788  48.4348 135.9769 15.08846415  1308,6917.861,95.437,540.9630000000002,538.489,0.0
52856.0,STARLINK-4201,PAYLOAD,2022-09-15 14:00:01,15.08818253,0.0001898,53.2133,330.3377,44.8444,162.7801,0.0028466999999999,0.00045282,0.0,0 STARLINK-4201,1 52856U 22062AC  22258.58334491  .00045282  00000-0  28467-2 0  9994,2 52856  53.2133 330.3377 0001898  44.8444 162.7801 15.08818253  1305,6917.946999999999,95.439,541.125,538.499,0.0
52856.0,STARLINK-4201,PAYLOAD,2022-09-15 22:00:00,15.08864402,0.0001743,53.2133,328.8398,46.1239,173.0872,-0.0016739,-0.00026847,0.0,0 STARLINK-4201,1 52856U 22062AC  22258.91667824 -.00026847  00000-0 -16739-2 0  9997,2 52856  53.2133 328.8398 0001743  46.1239 173.0872 15.08864402  1306,6917.806,95.436,540.877,538.465,0.0
52856.0,STARLINK-4201,PAYLOAD,2022-09-16 02:00:01,15.08839205,0.0001641,53.2133,328.0908,47.8505,357.1711,0.00054685,8.426e-05,0.0,0 STARLINK-4201,1 52856U 22062AC  22259.08334491  .00008426  00000-0  54685-3 0  9991,2 52856  53.2133 328.0908 0001641  47.8505 357.1711 15.08839205 14591,6917.8830000000025,95.438,540.883,538.613,0.0
52856.0,STARLINK-4201,PAYLOAD,2022-09-16 14:00:01,15.08812625,0.0001814,53.2135,325.848,39.7958,202.6245,0.00083499,0.00013016,0.0,0 STARLINK-4201,1 52856U 22062AC  22259.58334491  .00013016  00000-0  83499-3 0  9992,2 52856  53.2135 325.8480 0001814  39.7958 202.6245 15.08812625  1305,6917.964,95.439,541.0840000000002,538.5740000000002,0.0
52856.0,STARLINK-4201,PAYLOAD,2022-09-16 16:00:00,15.0880354,0.0001774999999999,53.2133,325.4738,38.3997,296.9164,0.0021498,0.00034058,0.0,0 STARLINK-4201,1 52856U 22062AC  22259.66667824  .00034058  00000-0  21498-2 0  9999,2 52856  53.2133 325.4738 0001775  38.3997 296.9164 15.08803540 14686,6917.9919999999975,95.44,541.085,538.629,0.0
52856.0,STARLINK-4201,PAYLOAD,2022-09-16 22:00:00,15.08824735,0.0001621,53.2136,324.35,41.2778,212.7114,-0.00036953,-6.162e-05,0.0,0 STARLINK-4201,1 52856U 22062AC  22259.91667824 -.00006162  00000-0 -36953-3 0  9997,2 52856  53.2136 324.3500 0001621  41.2778 212.7114 15.08824735  1309,6917.927,95.439,540.913,538.6709999999998,0.0
52856.0,STARLINK-4201,PAYLOAD,2022-09-17 14:00:01,15.08814661,0.0001807,53.2135,321.3585,39.0809,238.0735,0.0028154,0.00044773,0.0,0 STARLINK-4201,1 52856U 22062AC  22260.58334491  .00044773  00000-0  28154-2 0  9994,2 52856  53.2135 321.3585 0001807  39.0809 238.0735 15.08814661 14822,6917.958000000001,95.439,541.073,538.573,0.0
52856.0,STARLINK-4201,PAYLOAD,2022-09-17 22:00:00,15.08845704,0.000164,53.2135,319.8605,42.548,246.1949,-0.00019282,-3.356e-05,0.0,0 STARLINK-4201,1 52856U 22062AC  22260.91667824 -.00003356  00000-0 -19282-3 0  9997,2 52856  53.2135 319.8605 0001640  42.5480 246.1949 15.08845704  1304,6917.863,95.437,540.862,538.5930000000002,0.0
52856.0,STARLINK-4201,PAYLOAD,2022-09-18 06:00:00,15.08862857,0.0001669,53.2136,318.3641,46.9044,253.4354,-0.0027641,-0.00044038,0.0,0 STARLINK-4201,1 52856U 22062AC  22261.25001157 -.00044038  00000-0 -27641-2 0  9995,2 52856  53.2136 318.3641 0001669  46.9044 253.4354 15.08862857 14925,6917.811,95.436,540.83,538.521,0.0
